CCSDS_OMM_VERS = 2.0
CREATION_DATE  = 
ORIGINATOR     = 

OBJECT_NAME    = COSMOS 2242
OBJECT_ID      = 1993-024A
CENTER_NAME    = EARTH
REF_FRAME      = TEME
TIME_SYSTEM    = UTC
MEAN_ELEMENT_THEORY = SGP/SGP4

EPOCH          = 2026-03-21T12:53:32.513568
MEAN_MOTION    = 14.96596927
ECCENTRICITY   = .00149048
INCLINATION    = 82.5153
RA_OF_ASC_NODE = 255.3809
ARG_OF_PERICENTER = 265.3762
MEAN_ANOMALY   = 94.5758

EPHEMERIS_TYPE = 0
CLASSIFICATION_TYPE = U
NORAD_CAT_ID   = 22626
ELEMENT_SET_NO = 999
REV_AT_EPOCH   = 78216
BSTAR          = .17468699E-3
MEAN_MOTION_DOT = .2018E-4
MEAN_MOTION_DDOT = 0

CCSDS_OMM_VERS = 2.0
CREATION_DATE  = 
ORIGINATOR     = 

OBJECT_NAME    = SL-16 R/B
OBJECT_ID      = 1993-059B
CENTER_NAME    = EARTH
REF_FRAME      = TEME
TIME_SYSTEM    = UTC
MEAN_ELEMENT_THEORY = SGP/SGP4

EPOCH          = 2026-03-21T11:25:01.536672
MEAN_MOTION    = 14.17234546
ECCENTRICITY   = .00178435
INCLINATION    = 70.9930
RA_OF_ASC_NODE = 346.2738
ARG_OF_PERICENTER = 199.4469
MEAN_ANOMALY   = 160.5976

EPHEMERIS_TYPE = 0
CLASSIFICATION_TYPE = U
NORAD_CAT_ID   = 22803
ELEMENT_SET_NO = 999
REV_AT_EPOCH   = 68120
BSTAR          = .11893841E-3
MEAN_MOTION_DOT = .193E-5
MEAN_MOTION_DDOT = 0

CCSDS_OMM_VERS = 2.0
CREATION_DATE  = 
ORIGINATOR     = 

OBJECT_NAME    = ARIANE 40 R/B
OBJECT_ID      = 1993-061H
CENTER_NAME    = EARTH
REF_FRAME      = TEME
TIME_SYSTEM    = UTC
MEAN_ELEMENT_THEORY = SGP/SGP4

EPOCH          = 2026-03-21T10:19:18.625152
MEAN_MOTION    = 14.32866698
ECCENTRICITY   = .00096742
INCLINATION    = 98.4894
RA_OF_ASC_NODE = 149.0848
ARG_OF_PERICENTER = 246.2121
MEAN_ANOMALY   = 113.8049

EPHEMERIS_TYPE = 0
CLASSIFICATION_TYPE = U
NORAD_CAT_ID   = 22830
ELEMENT_SET_NO = 999
REV_AT_EPOCH   = 69578
BSTAR          = .83886519E-4
MEAN_MOTION_DOT = .186E-5
MEAN_MOTION_DDOT = 0

CCSDS_OMM_VERS = 2.0
CREATION_DATE  = 
ORIGINATOR     = 

OBJECT_NAME    = COSMOS 2278
OBJECT_ID      = 1994-023A
CENTER_NAME    = EARTH
REF_FRAME      = TEME
TIME_SYSTEM    = UTC
MEAN_ELEMENT_THEORY = SGP/SGP4

EPOCH          = 2026-03-21T13:11:59.605152
MEAN_MOTION    = 14.14378037
ECCENTRICITY   = .00088236
INCLINATION    = 71.0537
RA_OF_ASC_NODE = 150.2865
ARG_OF_PERICENTER = 353.4392
MEAN_ANOMALY   = 6.6614

EPHEMERIS_TYPE = 0
CLASSIFICATION_TYPE = U
NORAD_CAT_ID   = 23087
ELEMENT_SET_NO = 999
REV_AT_EPOCH   = 64648
BSTAR          = -.86435274E-4
MEAN_MOTION_DOT = -.213E-5
MEAN_MOTION_DDOT = 0

CCSDS_OMM_VERS = 2.0
CREATION_DATE  = 
ORIGINATOR     = 

OBJECT_NAME    = SL-16 R/B
OBJECT_ID      = 1994-023B
CENTER_NAME    = EARTH
REF_FRAME      = TEME
TIME_SYSTEM    = UTC
MEAN_ELEMENT_THEORY = SGP/SGP4

EPOCH          = 2026-03-21T14:11:15.760032
MEAN_MOTION    = 14.15010693
ECCENTRICITY   = .00054802
INCLINATION    = 70.9998
RA_OF_ASC_NODE = 45.8906
ARG_OF_PERICENTER = 274.1004
MEAN_ANOMALY   = 85.9492

EPHEMERIS_TYPE = 0
CLASSIFICATION_TYPE = U
NORAD_CAT_ID   = 23088
ELEMENT_SET_NO = 999
REV_AT_EPOCH   = 64777
BSTAR          = .91361873E-4
MEAN_MOTION_DOT = .129E-5
MEAN_MOTION_DDOT = 0

CCSDS_OMM_VERS = 2.0
CREATION_DATE  = 
ORIGINATOR     = 

OBJECT_NAME    = SL-16 R/B
OBJECT_ID      = 1994-074B
CENTER_NAME    = EARTH
REF_FRAME      = TEME
TIME_SYSTEM    = UTC
MEAN_ELEMENT_THEORY = SGP/SGP4

EPOCH          = 2026-03-21T13:53:46.904640
MEAN_MOTION    = 14.79421039
ECCENTRICITY   = .0006734
INCLINATION    = 97.7093
RA_OF_ASC_NODE = 110.9146
ARG_OF_PERICENTER = 170.0360
MEAN_ANOMALY   = 341.5898

EPHEMERIS_TYPE = 0
CLASSIFICATION_TYPE = U
NORAD_CAT_ID   = 23343
ELEMENT_SET_NO = 999
REV_AT_EPOCH   = 68900
BSTAR          = .6808815E-4
MEAN_MOTION_DOT = .459E-5
MEAN_MOTION_DDOT = 0

CCSDS_OMM_VERS = 2.0
CREATION_DATE  = 
ORIGINATOR     = 

OBJECT_NAME    = SL-16 R/B
OBJECT_ID      = 1994-077B
CENTER_NAME    = EARTH
REF_FRAME      = TEME
TIME_SYSTEM    = UTC
MEAN_ELEMENT_THEORY = SGP/SGP4

EPOCH          = 2026-03-21T03:27:34.390656
MEAN_MOTION    = 14.15566762
ECCENTRICITY   = .00024192
INCLINATION    = 70.9847
RA_OF_ASC_NODE = 328.3929
ARG_OF_PERICENTER = 199.8144
MEAN_ANOMALY   = 160.2885

EPHEMERIS_TYPE = 0
CLASSIFICATION_TYPE = U
NORAD_CAT_ID   = 23405
ELEMENT_SET_NO = 999
REV_AT_EPOCH   = 61785
BSTAR          = .16239923E-3
MEAN_MOTION_DOT = .27E-5
MEAN_MOTION_DDOT = 0

CCSDS_OMM_VERS = 2.0
CREATION_DATE  = 
ORIGINATOR     = 

OBJECT_NAME    = ARIANE 40+ R/B
OBJECT_ID      = 1995-021B
CENTER_NAME    = EARTH
REF_FRAME      = TEME
TIME_SYSTEM    = UTC
MEAN_ELEMENT_THEORY = SGP/SGP4

EPOCH          = 2026-03-21T11:34:28.344000
MEAN_MOTION    = 14.39780466
ECCENTRICITY   = .0007957
INCLINATION    = 98.4476
RA_OF_ASC_NODE = 151.8039
ARG_OF_PERICENTER = 105.8690
MEAN_ANOMALY   = 264.6554

EPHEMERIS_TYPE = 0
CLASSIFICATION_TYPE = U
NORAD_CAT_ID   = 23561
ELEMENT_SET_NO = 999
REV_AT_EPOCH   = 62094
BSTAR          = .1011532E-3
MEAN_MOTION_DOT = .274E-5
MEAN_MOTION_DDOT = 0

CCSDS_OMM_VERS = 2.0
CREATION_DATE  = 
ORIGINATOR     = 

OBJECT_NAME    = SL-16 R/B
OBJECT_ID      = 1995-058B
CENTER_NAME    = EARTH
REF_FRAME      = TEME
TIME_SYSTEM    = UTC
MEAN_ELEMENT_THEORY = SGP/SGP4

EPOCH          = 2026-03-21T13:48:59.303232
MEAN_MOTION    = 14.15500885
ECCENTRICITY   = .00102122
INCLINATION    = 71.0221
RA_OF_ASC_NODE = 155.3027
ARG_OF_PERICENTER = 103.8504
MEAN_ANOMALY   = 256.3755

EPHEMERIS_TYPE = 0
CLASSIFICATION_TYPE = U
NORAD_CAT_ID   = 23705
ELEMENT_SET_NO = 999
REV_AT_EPOCH   = 56953
BSTAR          = .645241E-5
MEAN_MOTION_DOT = -.35E-6
MEAN_MOTION_DDOT = 0

CCSDS_OMM_VERS = 2.0
CREATION_DATE  = 
ORIGINATOR     = 

OBJECT_NAME    = SL-16 R/B
OBJECT_ID      = 1996-051B
CENTER_NAME    = EARTH
REF_FRAME      = TEME
TIME_SYSTEM    = UTC
MEAN_ELEMENT_THEORY = SGP/SGP4

EPOCH          = 2026-03-21T13:38:13.000128
MEAN_MOTION    = 14.12418870
ECCENTRICITY   = .00140744
INCLINATION    = 70.7597
RA_OF_ASC_NODE = 150.0984
ARG_OF_PERICENTER = 129.3043
MEAN_ANOMALY   = 230.9327

EPHEMERIS_TYPE = 0
CLASSIFICATION_TYPE = U
NORAD_CAT_ID   = 24298
ELEMENT_SET_NO = 999
REV_AT_EPOCH   = 52332
BSTAR          = .83812448E-4
MEAN_MOTION_DOT = .106E-5
MEAN_MOTION_DDOT = 0

CCSDS_OMM_VERS = 2.0
CREATION_DATE  = 
ORIGINATOR     = 

OBJECT_NAME    = ORBVIEW 2 (SEASTAR)
OBJECT_ID      = 1997-037A
CENTER_NAME    = EARTH
REF_FRAME      = TEME
TIME_SYSTEM    = UTC
MEAN_ELEMENT_THEORY = SGP/SGP4

EPOCH          = 2026-03-21T11:25:53.150304
MEAN_MOTION    = 14.35502977
ECCENTRICITY   = .00027222
INCLINATION    = 98.8586
RA_OF_ASC_NODE = 245.1015
ARG_OF_PERICENTER = 46.6732
MEAN_ANOMALY   = 313.4679

EPHEMERIS_TYPE = 0
CLASSIFICATION_TYPE = U
NORAD_CAT_ID   = 24883
ELEMENT_SET_NO = 999
REV_AT_EPOCH   = 51016
BSTAR          = .10873273E-3
MEAN_MOTION_DOT = .266E-5
MEAN_MOTION_DDOT = 0

CCSDS_OMM_VERS = 2.0
CREATION_DATE  = 
ORIGINATOR     = 

OBJECT_NAME    = SL-16 R/B
OBJECT_ID      = 1998-043G
CENTER_NAME    = EARTH
REF_FRAME      = TEME
TIME_SYSTEM    = UTC
MEAN_ELEMENT_THEORY = SGP/SGP4

EPOCH          = 2026-03-21T14:08:25.940832
MEAN_MOTION    = 14.26052328
ECCENTRICITY   = .00095889
INCLINATION    = 98.8276
RA_OF_ASC_NODE = 34.0383
ARG_OF_PERICENTER = 346.3565
MEAN_ANOMALY   = 13.7354

EPHEMERIS_TYPE = 0
CLASSIFICATION_TYPE = U
NORAD_CAT_ID   = 25400
ELEMENT_SET_NO = 999
REV_AT_EPOCH   = 44068
BSTAR          = .4442052E-4
MEAN_MOTION_DOT = .61E-6
MEAN_MOTION_DDOT = 0

